COSMOS 2251 DEB         
1 35611U 93036ANE 17345.11774516  .00000627  00000-0  20709-3 0  9995
2 35611  74.0310 241.5020 0043115 305.9445  53.7713 14.39609714450167
